KUIPER-00027            
1 63740U 25088S   25296.15570164  .00003032  00000+0  43074-3 0  9994
2 63740  51.9021 343.6022 0005194  68.1223 292.0291 14.79525017 27253
KUIPER-00028            
1 63741U 25088T   25296.10207860  .00002888  00000+0  41353-3 0  9996
2 63741  51.9009 341.7866 0004719  90.1294 270.0209 14.79330449 27685
KUIPER-00029            
1 63742U 25088U   25296.14780028  .00003289  00000+0  46015-3 0  9999
2 63742  51.9026 339.5525 0008877  38.0487 322.1101 14.79938304 27242
KUIPER-00030            
1 63743U 25088V   25295.47808966 -.00003370  00000+0 -41189-3 0  9997
2 63743  51.9017   1.7077 0014086 337.4536  22.5806 14.79949373 27165
KUIPER-00031            
1 63744U 25088W   25296.16793777 -.00001845  00000+0 -21286-3 0  9999
2 63744  51.8974 344.7282 0004538  21.9354 338.1802 14.79926836 27171
KUIPER-00032            
1 63745U 25088X   25296.10110914  .00017482  00000+0  57552-3 0  9997
2 63745  51.8721 326.4418 0005619   3.0249 357.0768 15.31565486 28424
KUIPER-00033            
1 63746U 25088Y   25296.20305258  .00000208  00000+0  56459-4 0  9990
2 63746  51.9009  14.5573 0004325  85.7421 274.4035 14.79945131 27242
KUIPER-00034            
1 63747U 25088Z   25295.54709266  .00005441  00000+0  74135-3 0  9998
2 63747  51.9017 339.7533 0002357  12.3468 347.7552 14.79983494 27354
